{
  "type": "FeatureCollection",
  "features": [
    {
      "type": "Feature",
      "properties": {
        "norad_id": 36540,
        "name": "COSMOS 2251 DEB",
        "group": "cosmos-2251-debris",
        "lat": -46.25244971405844,
        "lon": 2.939044459808939,
        "alt_km": 693.9370406354938,
        "timestamp": "2025-12-20T14:38:02.366451+00:00",
        "meta_object_name": "COSMOS 2251 DEB",
        "meta_object_id": "1993-036BDA",
        "meta_epoch": "2025-12-19T21:07:36.630912",
        "meta_mean_motion": 14.5854434,
        "meta_eccentricity": 0.0014726,
        "meta_inclination": 74.0274,
        "meta_ra_of_asc_node": 166.9171,
        "meta_arg_of_pericenter": 237.0542,
        "meta_mean_anomaly": 122.9208,
        "meta_ephemeris_type": 0,
        "meta_classification_type": "U",
        "meta_norad_cat_id": 36540,
        "meta_element_set_no": 999,
        "meta_rev_at_epoch": 86114,
        "meta_bstar": 0.00072554,
        "meta_mean_motion_dot": 3.35e-05,
        "meta_mean_motion_ddot": 0,
        "tle_line1": "1 36540U 93036BDA 25353.88028508  .00003350  00000+0  72554-3 0  9992",
        "tle_line2": "2 36540  74.0274 166.9171 0014726 237.0542 122.9208 14.58544340861140"
      },
      "geometry": {
        "type": "Point",
        "coordinates": [
          2.939044459808939,
          -46.25244971405844
        ]
      }
    },
    {
      "type": "Feature",
      "properties": {
        "norad_id": 36550,
        "name": "COSMOS 2251 DEB",
        "group": "cosmos-2251-debris",
        "lat": -72.59347433107604,
        "lon": 64.37102587374565,
        "alt_km": 762.2240980591823,
        "timestamp": "2025-12-20T14:38:02.366461+00:00",
        "meta_object_name": "COSMOS 2251 DEB",
        "meta_object_id": "1993-036BDL",
        "meta_epoch": "2025-12-18T21:01:50.103840",
        "meta_mean_motion": 14.27217133,
        "meta_eccentricity": 0.00780997,
        "meta_inclination": 74.0439,
        "meta_ra_of_asc_node": 181.6412,
        "meta_arg_of_pericenter": 230.9486,
        "meta_mean_anomaly": 128.4696,
        "meta_ephemeris_type": 0,
        "meta_classification_type": "U",
        "meta_norad_cat_id": 36550,
        "meta_element_set_no": 999,
        "meta_rev_at_epoch": 84683,
        "meta_bstar": 0.00048644345,
        "meta_mean_motion_dot": 1.202e-05,
        "meta_mean_motion_ddot": 0,
        "tle_line1": "1 36550U 93036BDL 25352.87627435  .00001202  00000+0  48644-3 0  9992",
        "tle_line2": "2 36550  74.0439 181.6412 0078099 230.9486 128.4696 14.27217133846832"
      },
      "geometry": {
        "type": "Point",
        "coordinates": [
          64.37102587374565,
          -72.59347433107604
        ]
      }
    },
    {
      "type": "Feature",
      "properties": {
        "norad_id": 36551,
        "name": "COSMOS 2251 DEB",
        "group": "cosmos-2251-debris",
        "lat": -60.21569605761403,
        "lon": -31.838391123392764,
        "alt_km": 530.4898994964478,
        "timestamp": "2025-12-20T14:38:02.366471+00:00",
        "meta_object_name": "COSMOS 2251 DEB",
        "meta_object_id": "1993-036BDM",
        "meta_epoch": "2025-12-17T00:38:25.172736",
        "meta_mean_motion": 15.02702962,
        "meta_eccentricity": 0.00507763,
        "meta_inclination": 73.887,
        "meta_ra_of_asc_node": 5.8751,
        "meta_arg_of_pericenter": 314.3814,
        "meta_mean_anomaly": 45.322,
        "meta_ephemeris_type": 0,
        "meta_classification_type": "U",
        "meta_norad_cat_id": 36551,
        "meta_element_set_no": 999,
        "meta_rev_at_epoch": 66996,
        "meta_bstar": 0.00093894132,
        "meta_mean_motion_dot": 0.00012873,
        "meta_mean_motion_ddot": 0,
        "tle_line1": "1 36551U 93036BDM 25351.02668024  .00012873  00000+0  93894-3 0  9991",
        "tle_line2": "2 36551  73.8870   5.8751 0050776 314.3814  45.3220 15.02702962669966"
      },
      "geometry": {
        "type": "Point",
        "coordinates": [
          -31.838391123392764,
          -60.21569605761403
        ]
      }
    },
    {
      "type": "Feature",
      "properties": {
        "norad_id": 36557,
        "name": "COSMOS 2251 DEB",
        "group": "cosmos-2251-debris",
        "lat": -46.071260730019645,
        "lon": 93.38215517591964,
        "alt_km": 630.325550194093,
        "timestamp": "2025-12-20T14:38:02.366481+00:00",
        "meta_object_name": "COSMOS 2251 DEB",
        "meta_object_id": "1993-036BDT",
        "meta_epoch": "2025-12-16T15:02:26.530080",
        "meta_mean_motion": 14.78433531,
        "meta_eccentricity": 0.00216791,
        "meta_inclination": 73.9792,
        "meta_ra_of_asc_node": 118.5873,
        "meta_arg_of_pericenter": 270.9403,
        "meta_mean_anomaly": 88.9288,
        "meta_ephemeris_type": 0,
        "meta_classification_type": "U",
        "meta_norad_cat_id": 36557,
        "meta_element_set_no": 999,
        "meta_rev_at_epoch": 33954,
        "meta_bstar": 0.0025552637,
        "meta_mean_motion_dot": 0.00018721,
        "meta_mean_motion_ddot": 0,
        "tle_line1": "1 36557U 93036BDT 25350.62669595  .00018721  00000+0  25553-2 0  9990",
        "tle_line2": "2 36557  73.9792 118.5873 0021679 270.9403  88.9288 14.78433531339544"
      },
      "geometry": {
        "type": "Point",
        "coordinates": [
          93.38215517591964,
          -46.071260730019645
        ]
      }
    },
    {
      "type": "Feature",
      "properties": {
        "norad_id": 36558,
        "name": "COSMOS 2251 DEB",
        "group": "cosmos-2251-debris",
        "lat": -40.18568100677823,
        "lon": 125.6578778058632,
        "alt_km": 714.2813876610444,
        "timestamp": "2025-12-20T14:38:02.366491+00:00",
        "meta_object_name": "COSMOS 2251 DEB",
        "meta_object_id": "1993-036BDU",
        "meta_epoch": "2025-12-17T02:41:33.012960",
        "meta_mean_motion": 14.55391753,
        "meta_eccentricity": 0.00127941,
        "meta_inclination": 74.0416,
        "meta_ra_of_asc_node": 146.2642,
        "meta_arg_of_pericenter": 234.8109,
        "meta_mean_anomaly": 125.1857,
        "meta_ephemeris_type": 0,
        "meta_classification_type": "U",
        "meta_norad_cat_id": 36558,
        "meta_element_set_no": 999,
        "meta_rev_at_epoch": 85332,
        "meta_bstar": 0.0007067154,
        "meta_mean_motion_dot": 3.045e-05,
        "meta_mean_motion_ddot": 0,
        "tle_line1": "1 36558U 93036BDU 25351.11218765  .00003045  00000+0  70672-3 0  9991",
        "tle_line2": "2 36558  74.0416 146.2642 0012794 234.8109 125.1857 14.55391753853329"
      },
      "geometry": {
        "type": "Point",
        "coordinates": [
          125.6578778058632,
          -40.18568100677823
        ]
      }
    },
    {
      "type": "Feature",
      "properties": {
        "norad_id": 36559,
        "name": "COSMOS 2251 DEB",
        "group": "cosmos-2251-debris",
        "lat": -62.04279548660702,
        "lon": -151.229975891924,
        "alt_km": 1061.3294502559047,
        "timestamp": "2025-12-20T14:38:02.366501+00:00",
        "meta_object_name": "COSMOS 2251 DEB",
        "meta_object_id": "1993-036BDV",
        "meta_epoch": "2025-12-16T01:02:38.774976",
        "meta_mean_motion": 13.95226172,
        "meta_eccentricity": 0.0260446,
        "meta_inclination": 74.1323,
        "meta_ra_of_asc_node": 4.1653,
        "meta_arg_of_pericenter": 36.0043,
        "meta_mean_anomaly": 325.8321,
        "meta_ephemeris_type": 0,
        "meta_classification_type": "U",
        "meta_norad_cat_id": 36559,
        "meta_element_set_no": 999,
        "meta_rev_at_epoch": 81140,
        "meta_bstar": 0.0020581095,
        "meta_mean_motion_dot": 3.672e-05,
        "meta_mean_motion_ddot": 0,
        "tle_line1": "1 36559U 93036BDV 25350.04350434  .00003672  00000+0  20581-2 0  9992",
        "tle_line2": "2 36559  74.1323   4.1653 0260446  36.0043 325.8321 13.95226172811403"
      },
      "geometry": {
        "type": "Point",
        "coordinates": [
          -151.229975891924,
          -62.04279548660702
        ]
      }
    },
    {
      "type": "Feature",
      "properties": {
        "norad_id": 36614,
        "name": "COSMOS 2251 DEB",
        "group": "cosmos-2251-debris",
        "lat": 61.515735127602994,
        "lon": -52.32735214835354,
        "alt_km": 690.4295092253742,
        "timestamp": "2025-12-20T14:38:02.366511+00:00",
        "meta_object_name": "COSMOS 2251 DEB",
        "meta_object_id": "1993-036BEC",
        "meta_epoch": "2025-12-20T04:14:54.578976",
        "meta_mean_motion": 14.60348261,
        "meta_eccentricity": 0.00158372,
        "meta_inclination": 74.0212,
        "meta_ra_of_asc_node": 160.3748,
        "meta_arg_of_pericenter": 229.8459,
        "meta_mean_anomaly": 130.1321,
        "meta_ephemeris_type": 0,
        "meta_classification_type": "U",
        "meta_norad_cat_id": 36614,
        "meta_element_set_no": 999,
        "meta_rev_at_epoch": 65721,
        "meta_bstar": 0.00089520523,
        "meta_mean_motion_dot": 4.309e-05,
        "meta_mean_motion_ddot": 0,
        "tle_line1": "1 36614U 93036BEC 25354.17702059  .00004309  00000+0  89521-3 0  9994",
        "tle_line2": "2 36614  74.0212 160.3748 0015837 229.8459 130.1321 14.60348261657217"
      },
      "geometry": {
        "type": "Point",
        "coordinates": [
          -52.32735214835354,
          61.515735127602994
        ]
      }
    }
  ]
}